[{"OBJECT_NAME":"STARLINK-34829","OBJECT_ID":"2025-195N","EPOCH":"2026-03-09T22:25:06.825792","MEAN_MOTION":15.30194592,"ECCENTRICITY":0.00010356,"INCLINATION":53.1581,"RA_OF_ASC_NODE":256.8659,"ARG_OF_PERICENTER":78.8495,"MEAN_ANOMALY":281.2622,"EPHEMERIS_TYPE":0,"CLASSIFICATION_TYPE":"U","NORAD_CAT_ID":65470,"ELEMENT_SET_NO":999,"REV_AT_EPOCH":3003,"BSTAR":0.0011408299,"MEAN_MOTION_DOT":0.00033576,"MEAN_MOTION_DDOT":0},{"OBJECT_NAME":"PEGASUS DEB","OBJECT_ID":"1994-029AG","EPOCH":"2026-03-09T11:16:42.963744","MEAN_MOTION":15.37636263,"ECCENTRICITY":0.0031206,"INCLINATION":82.0362,"RA_OF_ASC_NODE":86.2933,"ARG_OF_PERICENTER":155.6019,"MEAN_ANOMALY":204.671,"EPHEMERIS_TYPE":0,"CLASSIFICATION_TYPE":"U","NORAD_CAT_ID":23986,"ELEMENT_SET_NO":999,"REV_AT_EPOCH":61542,"BSTAR":0.00061808813,"MEAN_MOTION_DOT":0.00023279,"MEAN_MOTION_DDOT":0}]
